[{"OBJECT_NAME":"TIANMU-1 12","OBJECT_ID":"2023-205B","EPOCH":"2026-03-09T23:16:21.235872","MEAN_MOTION":15.25812065,"ECCENTRICITY":0.00067383,"INCLINATION":97.3538,"RA_OF_ASC_NODE":91.8946,"ARG_OF_PERICENTER":353.283,"MEAN_ANOMALY":6.8317,"EPHEMERIS_TYPE":0,"CLASSIFICATION_TYPE":"U","NORAD_CAT_ID":58646,"ELEMENT_SET_NO":999,"REV_AT_EPOCH":12237,"BSTAR":0.00029269543,"MEAN_MOTION_DOT":7.417e-5,"MEAN_MOTION_DDOT":0},{"OBJECT_NAME":"STARLINK-36490","OBJECT_ID":"2026-002A","EPOCH":"2026-03-09T01:04:15.539520","MEAN_MOTION":15.27570065,"ECCENTRICITY":0.00022249,"INCLINATION":43.0048,"RA_OF_ASC_NODE":328.6178,"ARG_OF_PERICENTER":263.5738,"MEAN_ANOMALY":96.4861,"EPHEMERIS_TYPE":0,"CLASSIFICATION_TYPE":"U","NORAD_CAT_ID":67305,"ELEMENT_SET_NO":999,"REV_AT_EPOCH":1104,"BSTAR":0.0011108884,"MEAN_MOTION_DOT":0.00030425,"MEAN_MOTION_DDOT":0}]
